TIANMU-1 08             
1 57400U 23101B   26066.00237819  .00000346  00000+0  14775-4 0  9993
2 57400  97.2717 118.7901 0006380 134.2174 225.9592 15.29204229146020
STARLINK-32231          
1 60439U 24144Q   26068.70006477  .00000377  00000+0  24864-4 0  9994
2 60439  53.1596 216.8753 0000963  73.0782 287.0325 15.30190952 88413
